{
  "type": "FeatureCollection",
  "features": [
    {
      "type": "Feature",
      "properties": {
        "norad_id": 43602,
        "name": "BEIDOU-3 M12 (C26)",
        "group": "beidou",
        "lat": -3.3209850112963273,
        "lon": 9.785092626479509,
        "alt_km": 21549.475431684546,
        "timestamp": "2025-12-12T07:43:20.778632+00:00",
        "meta_object_name": "BEIDOU-3 M12 (C26)",
        "meta_object_id": "2018-067A",
        "meta_epoch": "2025-12-11T12:15:06.004224",
        "meta_mean_motion": 1.86227612,
        "meta_eccentricity": 0.00091491,
        "meta_inclination": 54.1831,
        "meta_ra_of_asc_node": 187.4051,
        "meta_arg_of_pericenter": 41.0073,
        "meta_mean_anomaly": 319.1184,
        "meta_ephemeris_type": 0,
        "meta_classification_type": "U",
        "meta_norad_cat_id": 43602,
        "meta_element_set_no": 999,
        "meta_rev_at_epoch": 4962,
        "meta_bstar": 0,
        "meta_mean_motion_dot": 7.1e-07,
        "meta_mean_motion_ddot": 0,
        "tle_line1": "1 43602U 18067A   25345.51048616  .00000071  00000+0  00000+0 0  9993",
        "tle_line2": "2 43602  54.1831 187.4051 0009149  41.0073 319.1184  1.86227612 49626"
      },
      "geometry": {
        "type": "Point",
        "coordinates": [
          9.785092626479509,
          -3.3209850112963273
        ]
      }
    },
    {
      "type": "Feature",
      "properties": {
        "norad_id": 43603,
        "name": "BEIDOU-3 M11 (C25)",
        "group": "beidou",
        "lat": 53.97985974461209,
        "lon": -76.08851651877909,
        "alt_km": 21513.644481305626,
        "timestamp": "2025-12-12T07:43:20.778643+00:00",
        "meta_object_name": "BEIDOU-3 M11 (C25)",
        "meta_object_id": "2018-067B",
        "meta_epoch": "2025-12-11T15:28:47.340768",
        "meta_mean_motion": 1.86227129,
        "meta_eccentricity": 0.00055755,
        "meta_inclination": 54.1804,
        "meta_ra_of_asc_node": 187.3644,
        "meta_arg_of_pericenter": 36.7806,
        "meta_mean_anomaly": 323.3147,
        "meta_ephemeris_type": 0,
        "meta_classification_type": "U",
        "meta_norad_cat_id": 43603,
        "meta_element_set_no": 999,
        "meta_rev_at_epoch": 4965,
        "meta_bstar": 0,
        "meta_mean_motion_dot": 7.3e-07,
        "meta_mean_motion_ddot": 0,
        "tle_line1": "1 43603U 18067B   25345.64499237  .00000073  00000+0  00000+0 0  9999",
        "tle_line2": "2 43603  54.1804 187.3644 0005575  36.7806 323.3147  1.86227129 49650"
      },
      "geometry": {
        "type": "Point",
        "coordinates": [
          -76.08851651877909,
          53.97985974461209
        ]
      }
    },
    {
      "type": "Feature",
      "properties": {
        "norad_id": 43622,
        "name": "BEIDOU-3 M13 (C32)",
        "group": "beidou",
        "lat": 44.44135382826841,
        "lon": -151.67475697804585,
        "alt_km": 21538.513686527313,
        "timestamp": "2025-12-12T07:43:20.778655+00:00",
        "meta_object_name": "BEIDOU-3 M13 (C32)",
        "meta_object_id": "2018-072A",
        "meta_epoch": "2025-12-09T23:46:31.895616",
        "meta_mean_motion": 1.8623066,
        "meta_eccentricity": 0.00056577,
        "meta_inclination": 56.4568,
        "meta_ra_of_asc_node": 68.9118,
        "meta_arg_of_pericenter": 299.2639,
        "meta_mean_anomaly": 60.7025,
        "meta_ephemeris_type": 0,
        "meta_classification_type": "U",
        "meta_norad_cat_id": 43622,
        "meta_element_set_no": 999,
        "meta_rev_at_epoch": 4913,
        "meta_bstar": 0,
        "meta_mean_motion_dot": -5.2e-07,
        "meta_mean_motion_ddot": 0,
        "tle_line1": "1 43622U 18072A   25343.99064694 -.00000052  00000+0  00000+0 0  9995",
        "tle_line2": "2 43622  56.4568  68.9118 0005657 299.2639  60.7025  1.86230660 49138"
      },
      "geometry": {
        "type": "Point",
        "coordinates": [
          -151.67475697804585,
          44.44135382826841
        ]
      }
    },
    {
      "type": "Feature",
      "properties": {
        "norad_id": 43623,
        "name": "BEIDOU-3 M14 (C33)",
        "group": "beidou",
        "lat": -27.076660106863624,
        "lon": -91.37093858133039,
        "alt_km": 21536.502838195232,
        "timestamp": "2025-12-12T07:43:20.778666+00:00",
        "meta_object_name": "BEIDOU-3 M14 (C33)",
        "meta_object_id": "2018-072B",
        "meta_epoch": "2025-12-09T20:32:48.183072",
        "meta_mean_motion": 1.86230666,
        "meta_eccentricity": 0.00032297,
        "meta_inclination": 56.4585,
        "meta_ra_of_asc_node": 68.9098,
        "meta_arg_of_pericenter": 335.6302,
        "meta_mean_anomaly": 24.3775,
        "meta_ephemeris_type": 0,
        "meta_classification_type": "U",
        "meta_norad_cat_id": 43623,
        "meta_element_set_no": 999,
        "meta_rev_at_epoch": 4912,
        "meta_bstar": 0,
        "meta_mean_motion_dot": -5.1e-07,
        "meta_mean_motion_ddot": 0,
        "tle_line1": "1 43623U 18072B   25343.85611323 -.00000051  00000+0  00000+0 0  9997",
        "tle_line2": "2 43623  56.4585  68.9098 0003229 335.6302  24.3775  1.86230666 49123"
      },
      "geometry": {
        "type": "Point",
        "coordinates": [
          -91.37093858133039,
          -27.076660106863624
        ]
      }
    },
    {
      "type": "Feature",
      "properties": {
        "norad_id": 43647,
        "name": "BEIDOU-3 M16 (C35)",
        "group": "beidou",
        "lat": 50.75880855776786,
        "lon": 64.76070555484205,
        "alt_km": 21521.28723525031,
        "timestamp": "2025-12-12T07:43:20.778677+00:00",
        "meta_object_name": "BEIDOU-3 M16 (C35)",
        "meta_object_id": "2018-078A",
        "meta_epoch": "2025-12-11T14:59:43.951200",
        "meta_mean_motion": 1.86232286,
        "meta_eccentricity": 0.00071648,
        "meta_inclination": 54.263,
        "meta_ra_of_asc_node": 306.5601,
        "meta_arg_of_pericenter": 19.2099,
        "meta_mean_anomaly": 340.8083,
        "meta_ephemeris_type": 0,
        "meta_classification_type": "U",
        "meta_norad_cat_id": 43647,
        "meta_element_set_no": 999,
        "meta_rev_at_epoch": 4866,
        "meta_bstar": 0,
        "meta_mean_motion_dot": -8.9e-07,
        "meta_mean_motion_ddot": 0,
        "tle_line1": "1 43647U 18078A   25345.62481425 -.00000089  00000+0  00000+0 0  9995",
        "tle_line2": "2 43647  54.2630 306.5601 0007164  19.2099 340.8083  1.86232286 48663"
      },
      "geometry": {
        "type": "Point",
        "coordinates": [
          64.76070555484205,
          50.75880855776786
        ]
      }
    },
    {
      "type": "Feature",
      "properties": {
        "norad_id": 43648,
        "name": "BEIDOU-3 M15 (C34)",
        "group": "beidou",
        "lat": 16.635593532493008,
        "lon": -41.06433805194056,
        "alt_km": 21515.934112571056,
        "timestamp": "2025-12-12T07:43:20.778688+00:00",
        "meta_object_name": "BEIDOU-3 M15 (C34)",
        "meta_object_id": "2018-078B",
        "meta_epoch": "2025-12-09T14:32:59.144640",
        "meta_mean_motion": 1.86231871,
        "meta_eccentricity": 0.0003622,
        "meta_inclination": 54.2606,
        "meta_ra_of_asc_node": 306.6314,
        "meta_arg_of_pericenter": 18.0065,
        "meta_mean_anomaly": 341.9965,
        "meta_ephemeris_type": 0,
        "meta_classification_type": "U",
        "meta_norad_cat_id": 43648,
        "meta_element_set_no": 999,
        "meta_rev_at_epoch": 4864,
        "meta_bstar": 0,
        "meta_mean_motion_dot": -7.7e-07,
        "meta_mean_motion_ddot": 0,
        "tle_line1": "1 43648U 18078B   25343.60624010 -.00000077  00000+0  00000+0 0  9998",
        "tle_line2": "2 43648  54.2606 306.6314 0003622  18.0065 341.9965  1.86231871 48642"
      },
      "geometry": {
        "type": "Point",
        "coordinates": [
          -41.06433805194056,
          16.635593532493008
        ]
      }
    },
    {
      "type": "Feature",
      "properties": {
        "norad_id": 43683,
        "name": "BEIDOU-3 G1 (C59)",
        "group": "beidou",
        "lat": -2.1151611760132227,
        "lon": -22.850216117614465,
        "alt_km": 35793.908693989346,
        "timestamp": "2025-12-12T07:43:20.778700+00:00",
        "meta_object_name": "BEIDOU-3 G1 (C59)",
        "meta_object_id": "2018-085A",
        "meta_epoch": "2025-12-11T21:01:31.887264",
        "meta_mean_motion": 1.00270946,
        "meta_eccentricity": 0.00017564,
        "meta_inclination": 2.6059,
        "meta_ra_of_asc_node": 103.0016,
        "meta_arg_of_pericenter": 64.132,
        "meta_mean_anomaly": 9.1505,
        "meta_ephemeris_type": 0,
        "meta_classification_type": "U",
        "meta_norad_cat_id": 43683,
        "meta_element_set_no": 999,
        "meta_rev_at_epoch": 2618,
        "meta_bstar": 0,
        "meta_mean_motion_dot": -2.69e-06,
        "meta_mean_motion_ddot": 0,
        "tle_line1": "1 43683U 18085A   25345.87606351 -.00000269  00000+0  00000+0 0  9997",
        "tle_line2": "2 43683   2.6059 103.0016 0001756  64.1320   9.1505  1.00270946 26180"
      },
      "geometry": {
        "type": "Point",
        "coordinates": [
          -22.850216117614465,
          -2.1151611760132227
        ]
      }
    }
  ]
}